[
  {
    "OBJECT_NAME": "STARLINK-2418",
    "OBJECT_ID": "21027F",
    "EPOCH": "2025-11-11T07:10:52.267584",
    "MEAN_MOTION": 15.06403861,
    "ECCENTRICITY": 0.0001459,
    "INCLINATION": 53.0552,
    "RA_OF_ASC_NODE": 323.0931,
    "ARG_OF_PERICENTER": 86.8992,
    "MEAN_ANOMALY": 273.2164,
    "EPHEMERIS_TYPE": 0,
    "CLASSIFICATION_TYPE": "U",
    "NORAD_CAT_ID": 48097,
    "ELEMENT_SET_NO": 999,
    "REV_AT_EPOCH": 25485,
    "BSTAR": 5.275600000000001e-05,
    "MEAN_MOTION_DOT": 5.04e-06,
    "MEAN_MOTION_DDOT": 0.0,
    "TLE_LINE1": "1 48097U 21027F   25315.29921606  .00000504  00000+0  52756-4 0  9998",
    "TLE_LINE2": "2 48097  53.0552 323.0931 0001459  86.8992 273.2164 15.06403861254855",
    "COMMENT": "Grouped by shell and plane from TLE"
  },
  {
    "OBJECT_NAME": "STARLINK-2430",
    "OBJECT_ID": "21027J",
    "EPOCH": "2025-11-11T07:00:15.756192",
    "MEAN_MOTION": 15.06396519,
    "ECCENTRICITY": 0.0001719,
    "INCLINATION": 53.0548,
    "RA_OF_ASC_NODE": 323.1247,
    "ARG_OF_PERICENTER": 85.2702,
    "MEAN_ANOMALY": 274.8483,
    "EPHEMERIS_TYPE": 0,
    "CLASSIFICATION_TYPE": "U",
    "NORAD_CAT_ID": 48100,
    "ELEMENT_SET_NO": 999,
    "REV_AT_EPOCH": 25485,
    "BSTAR": 0.00013556,
    "MEAN_MOTION_DOT": 1.738e-05,
    "MEAN_MOTION_DDOT": 0.0,
    "TLE_LINE1": "1 48100U 21027J   25315.29184903  .00001738  00000+0  13556-3 0  9998",
    "TLE_LINE2": "2 48100  53.0548 323.1247 0001719  85.2702 274.8483 15.06396519254859",
    "COMMENT": "Grouped by shell and plane from TLE"
  },
  {
    "OBJECT_NAME": "STARLINK-2439",
    "OBJECT_ID": "21027N",
    "EPOCH": "2025-11-11T06:30:23.961888",
    "MEAN_MOTION": 15.06386041,
    "ECCENTRICITY": 0.0001622,
    "INCLINATION": 53.054,
    "RA_OF_ASC_NODE": 328.2171,
    "ARG_OF_PERICENTER": 108.4654,
    "MEAN_ANOMALY": 251.6512,
    "EPHEMERIS_TYPE": 0,
    "CLASSIFICATION_TYPE": "U",
    "NORAD_CAT_ID": 48104,
    "ELEMENT_SET_NO": 999,
    "REV_AT_EPOCH": 25478,
    "BSTAR": 0.0,
    "MEAN_MOTION_DOT": -2.815e-05,
    "MEAN_MOTION_DDOT": 0.0,
    "TLE_LINE1": "1 48104U 21027N   25315.27111067 -.00002815  00000+0 -17022-3 0  9992",
    "TLE_LINE2": "2 48104  53.0540 328.2171 0001622 108.4654 251.6512 15.06386041254781",
    "COMMENT": "Grouped by shell and plane from TLE"
  },
  {
    "OBJECT_NAME": "STARLINK-2442",
    "OBJECT_ID": "21027Q",
    "EPOCH": "2025-11-11T07:05:33.926784",
    "MEAN_MOTION": 15.06398636,
    "ECCENTRICITY": 0.0001603,
    "INCLINATION": 53.0554,
    "RA_OF_ASC_NODE": 323.1203,
    "ARG_OF_PERICENTER": 86.0737,
    "MEAN_ANOMALY": 274.0435,
    "EPHEMERIS_TYPE": 0,
    "CLASSIFICATION_TYPE": "U",
    "NORAD_CAT_ID": 48106,
    "ELEMENT_SET_NO": 999,
    "REV_AT_EPOCH": 25485,
    "BSTAR": 0.00013712,
    "MEAN_MOTION_DOT": 1.761e-05,
    "MEAN_MOTION_DDOT": 0.0,
    "TLE_LINE1": "1 48106U 21027Q   25315.29553156  .00001761  00000+0  13712-3 0  9994",
    "TLE_LINE2": "2 48106  53.0554 323.1203 0001603  86.0737 274.0435 15.06398636254854",
    "COMMENT": "Grouped by shell and plane from TLE"
  },
  {
    "OBJECT_NAME": "STARLINK-2443",
    "OBJECT_ID": "21027R",
    "EPOCH": "2025-11-11T07:26:48.751008",
    "MEAN_MOTION": 15.06394134,
    "ECCENTRICITY": 0.0001235,
    "INCLINATION": 53.0545,
    "RA_OF_ASC_NODE": 323.0424,
    "ARG_OF_PERICENTER": 100.606,
    "MEAN_ANOMALY": 259.5069,
    "EPHEMERIS_TYPE": 0,
    "CLASSIFICATION_TYPE": "U",
    "NORAD_CAT_ID": 48107,
    "ELEMENT_SET_NO": 999,
    "REV_AT_EPOCH": 25485,
    "BSTAR": 0.00013196,
    "MEAN_MOTION_DOT": 1.684e-05,
    "MEAN_MOTION_DDOT": 0.0,
    "TLE_LINE1": "1 48107U 21027R   25315.31028647  .00001684  00000+0  13196-3 0  9990",
    "TLE_LINE2": "2 48107  53.0545 323.0424 0001235 100.6060 259.5069 15.06394134254852",
    "COMMENT": "Grouped by shell and plane from TLE"
  },
  {
    "OBJECT_NAME": "STARLINK-2455",
    "OBJECT_ID": "21027AB",
    "EPOCH": "2025-11-11T07:04:11.439840",
    "MEAN_MOTION": 15.06399277,
    "ECCENTRICITY": 0.000113,
    "INCLINATION": 53.0552,
    "RA_OF_ASC_NODE": 323.1025,
    "ARG_OF_PERICENTER": 81.9283,
    "MEAN_ANOMALY": 278.1834,
    "EPHEMERIS_TYPE": 0,
    "CLASSIFICATION_TYPE": "U",
    "NORAD_CAT_ID": 48117,
    "ELEMENT_SET_NO": 999,
    "REV_AT_EPOCH": 25485,
    "BSTAR": 0.0,
    "MEAN_MOTION_DOT": -7.44e-06,
    "MEAN_MOTION_DDOT": 0.0,
    "TLE_LINE1": "1 48117U 21027AB  25315.29457685 -.00000744  00000+0 -31075-4 0  9991",
    "TLE_LINE2": "2 48117  53.0552 323.1025 0001130  81.9283 278.1834 15.06399277254851",
    "COMMENT": "Grouped by shell and plane from TLE"
  },
  {
    "OBJECT_NAME": "STARLINK-2459",
    "OBJECT_ID": "21027AD",
    "EPOCH": "2025-11-11T07:14:49.058016",
    "MEAN_MOTION": 15.06397722,
    "ECCENTRICITY": 0.0001522,
    "INCLINATION": 53.0553,
    "RA_OF_ASC_NODE": 323.0714,
    "ARG_OF_PERICENTER": 93.8035,
    "MEAN_ANOMALY": 266.3128,
    "EPHEMERIS_TYPE": 0,
    "CLASSIFICATION_TYPE": "U",
    "NORAD_CAT_ID": 48119,
    "ELEMENT_SET_NO": 999,
    "REV_AT_EPOCH": 25484,
    "BSTAR": 0.0001452,
    "MEAN_MOTION_DOT": 1.882e-05,
    "MEAN_MOTION_DDOT": 0.0,
    "TLE_LINE1": "1 48119U 21027AD  25315.30195669  .00001882  00000+0  14520-3 0  9993",
    "TLE_LINE2": "2 48119  53.0553 323.0714 0001522  93.8035 266.3128 15.06397722254847",
    "COMMENT": "Grouped by shell and plane from TLE"
  },
  {
    "OBJECT_NAME": "STARLINK-2464",
    "OBJECT_ID": "21027AH",
    "EPOCH": "2025-11-11T06:54:57.098304",
    "MEAN_MOTION": 15.06397393,
    "ECCENTRICITY": 0.0001501,
    "INCLINATION": 53.055,
    "RA_OF_ASC_NODE": 323.1411,
    "ARG_OF_PERICENTER": 84.1544,
    "MEAN_ANOMALY": 275.9616,
    "EPHEMERIS_TYPE": 0,
    "CLASSIFICATION_TYPE": "U",
    "NORAD_CAT_ID": 48123,
    "ELEMENT_SET_NO": 999,
    "REV_AT_EPOCH": 25485,
    "BSTAR": 0.00014455999999999998,
    "MEAN_MOTION_DOT": 1.872e-05,
    "MEAN_MOTION_DDOT": 0.0,
    "TLE_LINE1": "1 48123U 21027AH  25315.28816086  .00001872  00000+0  14456-3 0  9995",
    "TLE_LINE2": "2 48123  53.0550 323.1411 0001501  84.1544 275.9616 15.06397393254852",
    "COMMENT": "Grouped by shell and plane from TLE"
  },
  {
    "OBJECT_NAME": "STARLINK-2467",
    "OBJECT_ID": "21027AL",
    "EPOCH": "2025-11-11T06:07:12.245376",
    "MEAN_MOTION": 15.06407493,
    "ECCENTRICITY": 0.0001263,
    "INCLINATION": 53.0547,
    "RA_OF_ASC_NODE": 323.2911,
    "ARG_OF_PERICENTER": 87.8803,
    "MEAN_ANOMALY": 272.233,
    "EPHEMERIS_TYPE": 0,
    "CLASSIFICATION_TYPE": "U",
    "NORAD_CAT_ID": 48126,
    "ELEMENT_SET_NO": 999,
    "REV_AT_EPOCH": 25485,
    "BSTAR": 0.0005349500000000001,
    "MEAN_MOTION_DOT": 7.697e-05,
    "MEAN_MOTION_DDOT": 0.0,
    "TLE_LINE1": "1 48126U 21027AL  25315.25500284  .00007697  00000+0  53495-3 0  9992",
    "TLE_LINE2": "2 48126  53.0547 323.2911 0001263  87.8803 272.2330 15.06407493254856",
    "COMMENT": "Grouped by shell and plane from TLE"
  },
  {
    "OBJECT_NAME": "STARLINK-2473",
    "OBJECT_ID": "21027AR",
    "EPOCH": "2025-11-11T07:32:05.851968",
    "MEAN_MOTION": 15.06397695,
    "ECCENTRICITY": 0.0001541,
    "INCLINATION": 53.0549,
    "RA_OF_ASC_NODE": 323.0268,
    "ARG_OF_PERICENTER": 95.4867,
    "MEAN_ANOMALY": 264.6298,
    "EPHEMERIS_TYPE": 0,
    "CLASSIFICATION_TYPE": "U",
    "NORAD_CAT_ID": 48131,
    "ELEMENT_SET_NO": 999,
    "REV_AT_EPOCH": 25485,
    "BSTAR": 6.336800000000001e-05,
    "MEAN_MOTION_DOT": 6.62e-06,
    "MEAN_MOTION_DDOT": 0.0,
    "TLE_LINE1": "1 48131U 21027AR  25315.31395662  .00000662  00000+0  63368-4 0  9993",
    "TLE_LINE2": "2 48131  53.0549 323.0268 0001541  95.4867 264.6298 15.06397695254851",
    "COMMENT": "Grouped by shell and plane from TLE"
  },
  {
    "OBJECT_NAME": "STARLINK-2480",
    "OBJECT_ID": "21027AX",
    "EPOCH": "2025-11-11T06:12:29.136384",
    "MEAN_MOTION": 15.06410022,
    "ECCENTRICITY": 0.0001403,
    "INCLINATION": 53.0552,
    "RA_OF_ASC_NODE": 323.2467,
    "ARG_OF_PERICENTER": 101.684,
    "MEAN_ANOMALY": 258.4306,
    "EPHEMERIS_TYPE": 0,
    "CLASSIFICATION_TYPE": "U",
    "NORAD_CAT_ID": 48137,
    "ELEMENT_SET_NO": 999,
    "REV_AT_EPOCH": 25484,
    "BSTAR": 0.00014972,
    "MEAN_MOTION_DOT": 1.95e-05,
    "MEAN_MOTION_DDOT": 0.0,
    "TLE_LINE1": "1 48137U 21027AX  25315.25867056  .00001950  00000+0  14972-3 0  9990",
    "TLE_LINE2": "2 48137  53.0552 323.2467 0001403 101.6840 258.4306 15.06410022254842",
    "COMMENT": "Grouped by shell and plane from TLE"
  },
  {
    "OBJECT_NAME": "STARLINK-2482",
    "OBJECT_ID": "21027AZ",
    "EPOCH": "2025-11-11T06:39:02.101824",
    "MEAN_MOTION": 15.06397634,
    "ECCENTRICITY": 0.0001526,
    "INCLINATION": 53.0559,
    "RA_OF_ASC_NODE": 323.1964,
    "ARG_OF_PERICENTER": 98.0071,
    "MEAN_ANOMALY": 262.1092,
    "EPHEMERIS_TYPE": 0,
    "CLASSIFICATION_TYPE": "U",
    "NORAD_CAT_ID": 48139,
    "ELEMENT_SET_NO": 999,
    "REV_AT_EPOCH": 25485,
    "BSTAR": 0.00023893000000000002,
    "MEAN_MOTION_DOT": 3.279e-05,
    "MEAN_MOTION_DDOT": 0.0,
    "TLE_LINE1": "1 48139U 21027AZ  25315.27710766  .00003279  00000+0  23893-3 0  9997",
    "TLE_LINE2": "2 48139  53.0559 323.1964 0001526  98.0071 262.1092 15.06397634254851",
    "COMMENT": "Grouped by shell and plane from TLE"
  },
  {
    "OBJECT_NAME": "STARLINK-2485",
    "OBJECT_ID": "21027BC",
    "EPOCH": "2025-11-11T06:33:42.896160",
    "MEAN_MOTION": 15.06395395,
    "ECCENTRICITY": 0.0001602,
    "INCLINATION": 53.0552,
    "RA_OF_ASC_NODE": 323.2116,
    "ARG_OF_PERICENTER": 90.2771,
    "MEAN_ANOMALY": 269.8402,
    "EPHEMERIS_TYPE": 0,
    "CLASSIFICATION_TYPE": "U",
    "NORAD_CAT_ID": 48142,
    "ELEMENT_SET_NO": 999,
    "REV_AT_EPOCH": 25485,
    "BSTAR": 0.0,
    "MEAN_MOTION_DOT": -3.1e-06,
    "MEAN_MOTION_DDOT": 0.0,
    "TLE_LINE1": "1 48142U 21027BC  25315.27341315 -.00000310  00000+0 -19302-5 0  9998",
    "TLE_LINE2": "2 48142  53.0552 323.2116 0001602  90.2771 269.8402 15.06395395254855",
    "COMMENT": "Grouped by shell and plane from TLE"
  }
]